NORAD_CAT_ID,OBJECT_NAME,OBJECT_TYPE,EPOCH,MEAN_MOTION,ECCENTRICITY,INCLINATION,RA_OF_ASC_NODE,ARG_OF_PERICENTER,MEAN_ANOMALY,BSTAR,MEAN_MOTION_DOT,MEAN_MOTION_DDOT,TLE_LINE0,TLE_LINE1,TLE_LINE2,SEMIMAJOR_AXIS,PERIOD,APOGEE,PERIGEE,DECAYED
54188.0,STARLINK-5238,PAYLOAD,2024-07-30 23:43:01,15.08859444,0.0001588,53.217,108.0877,90.8192,269.2982,0.00038162,5.794e-05,0.0,0 STARLINK-5238,1 54188U 22141AH  24212.98820740  .00005794  00000-0  38162-3 0  9993,2 54188  53.2170 108.0877 0001588  90.8192 269.2982 15.08859444 97426,6917.821,95.436,540.785,538.587,0.0
54188.0,STARLINK-5238,PAYLOAD,2024-07-31 20:23:02,15.08837714,0.0001643,53.2165,104.2184,119.2506,240.865,-2.9739e-05,-7.61e-06,0.0,0 STARLINK-5238,1 54188U 22141AH  24213.84933217 -.00000761  00000-0 -29739-4 0  9995,2 54188  53.2165 104.2184 0001643 119.2506 240.8650 15.08837714 97788,6917.887,95.438,540.889,538.616,0.0
54188.0,STARLINK-5238,PAYLOAD,2024-07-31 23:33:48,15.08838682,0.0001391,53.2167,103.6261,101.1908,258.924,1.0989e-05,-1.13e-06,0.0,0 STARLINK-5238,1 54188U 22141AH  24213.98181463 -.00000113  00000-0  10989-4 0  9995,2 54188  53.2167 103.6261 0001391 101.1908 258.9240 15.08838682 97572,6917.884,95.438,540.712,538.787,0.0
54188.0,STARLINK-5238,PAYLOAD,2024-08-01 09:06:07,15.08845405,0.0001381,53.2168,101.8425,102.6171,257.4976,0.00011493,1.542e-05,0.0,0 STARLINK-5238,1 54188U 22141AH  24214.37925131  .00001542  00000-0  11493-3 0  9993,2 54188  53.2168 101.8425 0001381 102.6171 257.4976 15.08845405 97630,6917.864,95.437,540.684,538.774,0.0
54188.0,STARLINK-5238,PAYLOAD,2024-08-01 20:13:49,15.0884876,0.0001377,53.2165,99.7616,107.8175,252.2967,0.00022693,3.326e-05,0.0,0 STARLINK-5238,1 54188U 22141AH  24214.84292909  .00003326  00000-0  22693-3 0  9991,2 54188  53.2165  99.7616 0001377 107.8175 252.2967 15.08848760 97933,6917.854,95.437,540.671,538.766,0.0
54188.0,STARLINK-5238,PAYLOAD,2024-08-01 23:24:35,15.08856618,0.0001315,53.2161,99.1693,110.2467,249.8666,0.0005291,8.147e-05,0.0,0 STARLINK-5238,1 54188U 22141AH  24214.97540734  .00008147  00000-0  52910-3 0  9998,2 54188  53.2161  99.1693 0001315 110.2467 249.8666 15.08856618 97728,6917.83,95.437,540.604,538.785,0.0
54188.0,STARLINK-5238,PAYLOAD,2024-08-02 08:56:54,15.08849292,0.0001333,53.2171,97.3831,98.6807,261.4336,0.00045894,7.025e-05,0.0,0 STARLINK-5238,1 54188U 22141AH  24215.37284902  .00007025  00000-0  45894-3 0  9992,2 54188  53.2171  97.3831 0001333  98.6807 261.4336 15.08849292 97780,6917.852,95.437,540.639,538.795,0.0
54188.0,STARLINK-5238,PAYLOAD,2024-08-02 20:04:36,15.08828692,0.0001342,53.2161,95.3033,100.3802,259.7342,-0.00010429,-1.947e-05,0.0,0 STARLINK-5238,1 54188U 22141AH  24215.83653836 -.00001947  00000-0 -10429-3 0  9994,2 54188  53.2161  95.3033 0001342 100.3802 259.7342 15.08828692 98089,6917.915,95.438,540.708,538.852,0.0
54188.0,STARLINK-5238,PAYLOAD,2024-08-02 23:15:23,15.08830632,0.0001492,53.2176,94.7101,105.3491,254.7666,5.4383e-05,5.77e-06,0.0,0 STARLINK-5238,1 54188U 22141AH  24215.96901660  .00000577  00000-0  54383-4 0  9993,2 54188  53.2176  94.7101 0001492 105.3491 254.7666 15.08830632 97876,6917.909,95.438,540.806,538.742,0.0
54188.0,STARLINK-5238,PAYLOAD,2024-08-03 08:47:42,15.08835913,0.000147,53.2176,92.9257,97.6145,262.5014,0.00085879,0.00013405,0.0,0 STARLINK-5238,1 54188U 22141AH  24216.36646101  .00013405  00000-0  85879-3 0  9991,2 54188  53.2176  92.9257 0001470  97.6145 262.5014 15.08835913 98167,6917.893,95.438,540.775,538.741,0.0
54188.0,STARLINK-5238,PAYLOAD,2024-08-03 21:30:47,15.08852311,0.0001487,53.2173,90.5466,96.9697,263.1464,0.0011079,0.00017394,0.0,0 STARLINK-5238,1 54188U 22141AH  24216.89638075  .00017394  00000-0  11079-2 0  9991,2 54188  53.2173  90.5466 0001487  96.9697 263.1464 15.08852311 98013,6917.843,95.437,540.736,538.679,0.0
54188.0,STARLINK-5238,PAYLOAD,2024-08-04 08:38:29,15.08852195,0.0001677,53.2162,88.461,92.4013,267.7171,0.00082551,0.00012879,0.0,0 STARLINK-5238,1 54188U 22141AH  24217.36005990  .00012879  00000-0  82551-3 0  9995,2 54188  53.2162  88.4610 0001677  92.4013 267.7171 15.08852195 98310,6917.843,95.437,540.868,538.548,0.0
54188.0,STARLINK-5238,PAYLOAD,2024-08-04 15:00:01,15.08862309,0.0001789,53.2165,87.2751,91.9239,268.1958,0.00099538,0.00015599,0.0,0 STARLINK-5238,1 54188U 22141AH  24217.62501786  .00015599  00000-0  99538-3 0  9993,2 54188  53.2165  87.2751 0001789  91.9239 268.1958 15.08862309 98129,6917.812,95.436,540.915,538.44,0.0
54188.0,STARLINK-5238,PAYLOAD,2024-08-04 22:56:56,15.08875878,0.0001423,53.2159,85.787,93.3793,266.7362,0.0014233,0.00022459,0.0,0 STARLINK-5238,1 54188U 22141AH  24217.95621234  .00022459  00000-0  14233-2 0  9991,2 54188  53.2159  85.7870 0001423  93.3793 266.7362 15.08875878 98176,6917.771,95.435,540.62,538.651,0.0
54188.0,STARLINK-5238,PAYLOAD,2024-08-05 00:32:19,15.08887012,0.0001405,53.2159,85.4896,93.6373,266.4779,0.001822,0.00028866,0.0,0 STARLINK-5238,1 54188U 22141AH  24218.02244949  .00028866  00000-0  18220-2 0  9992,2 54188  53.2159  85.4896 0001405  93.6373 266.4779 15.08887012 98417,6917.737,95.435,540.574,538.63,0.0
54188.0,STARLINK-5238,PAYLOAD,2024-08-05 19:36:57,15.08836932,0.0001305,53.2158,81.9188,95.7932,264.3209,0.0011467,0.00018007,0.0,0 STARLINK-5238,1 54188U 22141AH  24218.81733720  .00018007  00000-0  11467-2 0  9991,2 54188  53.2158  81.9188 0001305  95.7932 264.3209 15.08836932 98537,6917.89,95.438,540.658,538.852,0.0
54188.0,STARLINK-5238,PAYLOAD,2024-08-05 21:12:21,15.08840898,0.0001352,53.2153,81.6213,93.264,266.8506,0.0012172,0.00019137,0.0,0 STARLINK-5238,1 54188U 22141AH  24218.88357656  .00019137  00000-0  12172-2 0  9997,2 54188  53.2153  81.6213 0001352  93.2640 266.8506 15.08840898 98318,6917.878,95.437,540.678,538.807,0.0
54188.0,STARLINK-5238,PAYLOAD,2024-08-06 00:23:07,15.0884472,0.0001369,53.2152,81.0267,89.9578,270.1571,0.001692,0.00026746,0.0,0 STARLINK-5238,1 54188U 22141AH  24219.01605725  .00026746  00000-0  16920-2 0  9995,2 54188  53.2152  81.0267 0001369  89.9578 270.1571 15.08844720 98330,6917.866,95.437,540.678,538.784,0.0
54188.0,STARLINK-5238,PAYLOAD,2024-08-06 19:27:45,15.08855105,0.0001638,53.2152,77.4588,110.8522,249.2646,0.0016329,0.00025806,0.0,0 STARLINK-5238,1 54188U 22141AH  24219.81093956  .00025806  00000-0  16329-2 0  9999,2 54188  53.2152  77.4588 0001638 110.8522 249.2646 15.08855105 98684,6917.834,95.437,540.832,538.566,0.0
54188.0,STARLINK-5238,PAYLOAD,2024-08-06 21:03:08,15.08851204,0.0001415,53.2157,77.1609,116.601,243.5127,0.0013876,0.00021871,0.0,0 STARLINK-5238,1 54188U 22141AH  24219.87717892  .00021871  00000-0  13876-2 0  9999,2 54188  53.2157  77.1609 0001415 116.6010 243.5127 15.08851204 98462,6917.846,95.437,540.69,538.732,0.0
54188.0,STARLINK-5238,PAYLOAD,2024-08-07 00:13:54,15.08855184,0.0001405,53.2161,76.5664,111.7505,248.3636,0.0013556,0.00021361,0.0,0 STARLINK-5238,1 54188U 22141AH  24220.00965807  .00021361  00000-0  13556-2 0  9996,2 54188  53.2161  76.5664 0001405 111.7505 248.3636 15.08855184 98712,6917.834,95.437,540.671,538.727,0.0
54188.0,STARLINK-5238,PAYLOAD,2024-08-07 19:18:32,15.08849506,0.0001724,53.2165,72.994,120.1264,239.9899,0.00078762,0.00012272,0.0,0 STARLINK-5238,1 54188U 22141AH  24220.80453914  .00012272  00000-0  78762-3 0  9997,2 54188  53.2165  72.9940 0001724 120.1264 239.9899 15.08849506 98834,6917.851,95.437,540.909,538.524,0.0
54188.0,STARLINK-5238,PAYLOAD,2024-08-08 17:33:56,15.08848886,0.0001534,53.2163,68.834,103.2696,256.8468,0.00059254,9.157e-05,0.0,0 STARLINK-5238,1 54188U 22141AH  24221.73190042  .00009157  00000-0  59254-3 0  9993,2 54188  53.2163  68.8340 0001534 103.2696 256.8468 15.08848886 98975,6917.853,95.437,540.779,538.657,0.0
54188.0,STARLINK-5238,PAYLOAD,2024-08-09 06:17:01,15.08841267,0.0002361,53.2175,66.4548,81.2066,278.9194,0.00012227,1.658e-05,0.0,0 STARLINK-5238,1 54188U 22141AH  24222.26181871  .00001658  00000-0  12227-3 0  9999,2 54188  53.2175  66.4548 0002361  81.2066 278.9194 15.08841267 99054,6917.877,95.437,541.375,538.108,0.0
54188.0,STARLINK-5238,PAYLOAD,2024-08-09 14:13:57,15.08838883,0.0001558,53.217,64.9724,98.0635,262.0534,6.9879e-05,8.24e-06,0.0,0 STARLINK-5238,1 54188U 22141AH  24222.59302180  .00000824  00000-0  69879-4 0  9993,2 54188  53.2170  64.9724 0001558  98.0635 262.0534 15.08838883 98874,6917.884,95.438,540.827,538.671,0.0
54188.0,STARLINK-5238,PAYLOAD,2024-08-09 20:35:29,15.08850182,0.0001367,53.2186,63.7847,102.5823,257.5322,0.00032203,4.842e-05,0.0,0 STARLINK-5238,1 54188U 22141AH  24222.85797913  .00004842  00000-0  32203-3 0  9998,2 54188  53.2186  63.7847 0001367 102.5823 257.5322 15.08850182 98917,6917.849,95.437,540.66,538.769,0.0
54188.0,STARLINK-5238,PAYLOAD,2024-08-09 23:46:15,15.08858717,0.0001304,53.2173,63.1858,85.4054,274.7087,0.00086745,0.00013551,0.0,0 STARLINK-5238,1 54188U 22141AH  24222.99045675  .00013551  00000-0  86745-3 0  9991,2 54188  53.2173  63.1858 0001304  85.4054 274.7087 15.08858717 99164,6917.823,95.436,540.59,538.786,0.0
54188.0,STARLINK-5238,PAYLOAD,2024-08-10 12:29:21,15.0884081,0.0001204,53.2169,60.8064,70.217,289.8952,0.00041667,6.35e-05,0.0,0 STARLINK-5238,1 54188U 22141AH  24223.52038236  .00006350  00000-0  41667-3 0  9999,2 54188  53.2169  60.8064 0001204  70.2170 289.8952 15.08840810 99244,6917.878,95.438,540.576,538.91,0.0
54188.0,STARLINK-5238,PAYLOAD,2024-08-10 14:04:44,15.08843658,0.0001275,53.2158,60.5068,85.2116,274.9022,0.00047914,7.347e-05,0.0,0 STARLINK-5238,1 54188U 22141AH  24223.58662156  .00007347  00000-0  47914-3 0  9997,2 54188  53.2158  60.5068 0001275  85.2116 274.9022 15.08843658 99029,6917.869,95.437,540.616,538.852,0.0
54188.0,STARLINK-5238,PAYLOAD,2024-08-10 20:26:16,15.08864573,0.0001077,53.2171,59.3193,89.2697,270.8419,0.0019309,0.00030597,0.0,0 STARLINK-5238,1 54188U 22141AH  24223.85157774  .00030597  00000-0  19309-2 0  9991,2 54188  53.2171  59.3193 0001077  89.2697 270.8419 15.08864573 99290,6917.805,95.436,540.415,538.925,0.0
